NORAD_CAT_ID,OBJECT_NAME,OBJECT_TYPE,EPOCH,MEAN_MOTION,ECCENTRICITY,INCLINATION,RA_OF_ASC_NODE,ARG_OF_PERICENTER,MEAN_ANOMALY,BSTAR,MEAN_MOTION_DOT,MEAN_MOTION_DDOT,TLE_LINE0,TLE_LINE1,TLE_LINE2,SEMIMAJOR_AXIS,PERIOD,APOGEE,PERIGEE,DECAYED
52855.0,STARLINK-4209,PAYLOAD,2024-06-20 17:25:43,15.08843115,0.0001401,53.2186,318.6696,94.8507,265.2645,-3.4451e-05,-8.36e-06,0.0,0 STARLINK-4209,1 52855U 22062AB  24172.72619518 -.00000836  00000-0 -34451-4 0  9992,2 52855  53.2186 318.6696 0001401  94.8507 265.2645 15.08843115111762,6917.871,95.437,540.705,538.767,0.0
52855.0,STARLINK-4209,PAYLOAD,2024-06-21 14:05:43,15.08836637,0.0001216,53.2188,314.8038,88.4368,271.6763,0.00013342,1.836e-05,0.0,0 STARLINK-4209,1 52855U 22062AB  24173.58731472  .00001836  00000-0  13342-3 0  9995,2 52855  53.2188 314.8038 0001216  88.4368 271.6763 15.08836637111404,6917.891,95.438,540.597,538.914,0.0
52855.0,STARLINK-4209,PAYLOAD,2024-06-21 15:41:07,15.08838526,0.0001179,53.2186,314.5062,84.5892,275.5235,0.00011781,1.588e-05,0.0,0 STARLINK-4209,1 52855U 22062AB  24173.65355432  .00001588  00000-0  11781-3 0  9990,2 52855  53.2186 314.5062 0001179  84.5892 275.5235 15.08838526111410,6917.885,95.438,540.566,538.934,0.0
52855.0,STARLINK-4209,PAYLOAD,2024-06-22 09:10:21,15.08839206,0.0001188,53.2179,311.2349,83.6173,276.4954,7.2015e-05,8.58e-06,0.0,0 STARLINK-4209,1 52855U 22062AB  24174.38219465  .00000858  00000-0  72015-4 0  9993,2 52855  53.2179 311.2349 0001188  83.6173 276.4954 15.08839206112017,6917.883,95.438,540.57,538.926,0.0
52855.0,STARLINK-4209,PAYLOAD,2024-06-22 13:56:31,15.08837128,0.0001173,53.2178,310.3424,83.5688,276.5438,5.3988e-05,5.71e-06,0.0,0 STARLINK-4209,1 52855U 22062AB  24174.58091689  .00000571  00000-0  53988-4 0  9991,2 52855  53.2178 310.3424 0001173  83.5688 276.5438 15.08837128111551,6917.889,95.438,540.566,538.943,0.0
52855.0,STARLINK-4209,PAYLOAD,2024-06-22 15:31:54,15.08840101,0.000114,53.2179,310.0447,78.1066,282.0054,1.6277e-05,-2.9e-07,0.0,0 STARLINK-4209,1 52855U 22062AB  24174.64715642 -.00000029  00000-0  16277-4 0  9999,2 52855  53.2179 310.0447 0001140  78.1066 282.0054 15.08840101111560,6917.88,95.438,540.534,538.956,0.0
52855.0,STARLINK-4209,PAYLOAD,2024-06-23 12:11:54,15.08840651,0.0001172,53.2183,306.1788,98.5241,261.5884,1.7894e-05,-3e-08,0.0,0 STARLINK-4209,1 52855U 22062AB  24175.50827453 -.00000003  00000-0  17894-4 0  9997,2 52855  53.2183 306.1788 0001172  98.5241 261.5884 15.08840651112187,6917.878,95.438,540.554,538.933,0.0
52855.0,STARLINK-4209,PAYLOAD,2024-06-23 13:47:18,15.08840539,0.0001171,53.2184,305.8813,102.7827,257.3296,1.6333e-05,-2.8e-07,0.0,0 STARLINK-4209,1 52855U 22062AB  24175.57451438 -.00000028  00000-0  16333-4 0  9994,2 52855  53.2184 305.8813 0001171 102.7827 257.3296 15.08840539111702,6917.879,95.438,540.554,538.934,0.0
52855.0,STARLINK-4209,PAYLOAD,2024-06-24 13:38:05,15.08837352,0.0001153,53.2187,301.421,98.4425,261.6698,3.2616e-05,2.31e-06,0.0,0 STARLINK-4209,1 52855U 22062AB  24176.56811568  .00000231  00000-0  32616-4 0  9995,2 52855  53.2187 301.4210 0001153  98.4425 261.6698 15.08837352112347,6917.888,95.438,540.551,538.956,0.0
52855.0,STARLINK-4209,PAYLOAD,2024-06-24 15:13:28,15.08838746,0.0001219,53.2187,301.1233,103.1786,256.9342,4.4178e-05,4.15e-06,0.0,0 STARLINK-4209,1 52855U 22062AB  24176.63435430  .00000415  00000-0  44178-4 0  9993,2 52855  53.2187 301.1233 0001219 103.1786 256.9342 15.08838746111863,6917.884,95.438,540.593,538.906,0.0
52855.0,STARLINK-4209,PAYLOAD,2024-06-25 13:28:52,15.08835235,0.0001336,53.2188,296.9597,109.8925,250.2211,-3.653e-06,-3.46e-06,0.0,0 STARLINK-4209,1 52855U 22062AB  24177.56171981 -.00000346  00000-0 -36530-5 0  9993,2 52855  53.2188 296.9597 0001336 109.8925 250.2211 15.08835235112005,6917.895,95.438,540.684,538.836,0.0
52855.0,STARLINK-4209,PAYLOAD,2024-06-25 16:39:38,15.08835795,0.000133,53.2186,296.3646,109.2801,250.8335,-1.1842e-06,-3.07e-06,0.0,0 STARLINK-4209,1 52855U 22062AB  24177.69419967 -.00000307  00000-0 -11842-5 0  9992,2 52855  53.2186 296.3646 0001330 109.2801 250.8335 15.08835795112513,6917.893,95.438,540.678,538.838,0.0
52855.0,STARLINK-4209,PAYLOAD,2024-06-26 11:44:16,15.08835097,0.0001204,53.2172,292.7979,98.0568,262.0561,2.601e-05,1.26e-06,0.0,0 STARLINK-4209,1 52855U 22062AB  24178.48908030  .00000126  00000-0  26010-4 0  9993,2 52855  53.2172 292.7979 0001204  98.0568 262.0561 15.08835097112142,6917.895,95.438,540.593,538.927,0.0
52855.0,STARLINK-4209,PAYLOAD,2024-06-27 13:10:26,15.08838998,0.0001216,53.2178,288.0423,101.5411,258.5718,3.2281e-05,2.26e-06,0.0,0 STARLINK-4209,1 52855U 22062AB  24179.54892014  .00000226  00000-0  32281-4 0  9993,2 52855  53.2178 288.0423 0001216 101.5411 258.5718 15.08838998112798,6917.883,95.438,540.59,538.907,0.0
52855.0,STARLINK-4209,PAYLOAD,2024-06-27 19:31:59,15.08840254,0.0001211,53.2175,286.8519,99.6313,260.4816,4.518e-05,4.31e-06,0.0,0 STARLINK-4209,1 52855U 22062AB  24179.81387906  .00000431  00000-0  45180-4 0  9992,2 52855  53.2175 286.8519 0001211  99.6313 260.4816 15.08840254112340,6917.88,95.438,540.582,538.907,0.0
52855.0,STARLINK-4209,PAYLOAD,2024-06-28 13:01:12,15.08853961,9.69e-05,53.2169,283.5788,96.9639,263.1463,0.00019266,2.781e-05,0.0,0 STARLINK-4209,1 52855U 22062AB  24180.54250705  .00002781  00000-0  19266-3 0  9995,2 52855  53.2169 283.5788 0000969  96.9639 263.1463 15.08853961112948,6917.838,95.437,540.373,539.032,0.0
52855.0,STARLINK-4209,PAYLOAD,2024-06-28 14:36:35,15.08856676,0.0001243,53.2168,283.2811,128.8647,231.2456,0.00020842,3.032e-05,0.0,0 STARLINK-4209,1 52855U 22062AB  24180.60874319  .00003032  00000-0  20842-3 0  9997,2 52855  53.2168 283.2811 0001243 128.8647 231.2456 15.08856676112462,6917.829,95.436,540.554,538.835,0.0
52855.0,STARLINK-4209,PAYLOAD,2024-06-29 12:52:01,15.08827837,0.00013,53.2153,279.1201,100.999,259.1149,-5.0488e-05,-1.091e-05,0.0,0 STARLINK-4209,1 52855U 22062AB  24181.53612806 -.00001091  00000-0 -50488-4 0  9996,2 52855  53.2153 279.1201 0001300 100.9990 259.1149 15.08827837113094,6917.918,95.438,540.682,538.883,0.0
52855.0,STARLINK-4209,PAYLOAD,2024-06-29 14:27:24,15.08831421,0.0001321,53.2162,278.8215,117.049,243.0637,-3.3085e-05,-8.14e-06,0.0,0 STARLINK-4209,1 52855U 22062AB  24181.60236507 -.00000814  00000-0 -33085-4 0  9990,2 52855  53.2162 278.8215 0001321 117.0490 243.0637 15.08831421112617,6917.907,95.438,540.685,538.858,0.0
52855.0,STARLINK-4209,PAYLOAD,2024-06-29 23:59:42,15.08841118,0.0001304,53.2183,277.0359,102.0308,258.083,4.202e-05,3.81e-06,0.0,0 STARLINK-4209,1 52855U 22062AB  24181.99979797  .00000381  00000-0  42020-4 0  9993,2 52855  53.2183 277.0359 0001304 102.0308 258.0830 15.08841118113169,6917.877,95.437,540.644,538.84,0.0
52855.0,STARLINK-4209,PAYLOAD,2024-06-30 12:42:47,15.08848448,0.0001574,53.2162,274.6577,104.934,255.1827,-6.4449e-05,-1.314e-05,0.0,0 STARLINK-4209,1 52855U 22062AB  24182.52971790 -.00001314  00000-0 -64449-4 0  9996,2 52855  53.2162 274.6577 0001574 104.9340 255.1827 15.08848448112758,6917.855,95.437,540.808,538.631,0.0
52855.0,STARLINK-4209,PAYLOAD,2024-07-01 12:33:35,15.08832852,0.0001329,53.218,270.1965,109.7179,250.3956,4.7638e-05,4.7e-06,0.0,0 STARLINK-4209,1 52855U 22062AB  24183.52332379  .00000470  00000-0  47638-4 0  9992,2 52855  53.2180 270.1965 0001329 109.7179 250.3956 15.08832852113394,6917.902,95.438,540.687,538.848,0.0
52855.0,STARLINK-4209,PAYLOAD,2024-07-02 12:24:22,15.08828001,0.0001095,53.2167,265.7408,94.7753,265.3364,7.9023e-05,9.7e-06,0.0,0 STARLINK-4209,1 52855U 22062AB  24184.51693034  .00000970  00000-0  79023-4 0  9998,2 52855  53.2167 265.7408 0001095  94.7753 265.3364 15.08828001113055,6917.917,95.438,540.54,539.025,0.0
52855.0,STARLINK-4209,PAYLOAD,2024-07-03 05:53:37,15.08830964,0.0001142,53.216,262.4674,96.2326,263.8796,7.0145e-05,8.28e-06,0.0,0 STARLINK-4209,1 52855U 22062AB  24185.24557036  .00000828  00000-0  70145-4 0  9998,2 52855  53.2160 262.4674 0001142  96.2326 263.8796 15.08830964113652,6917.908,95.438,540.563,538.983,0.0
52855.0,STARLINK-4209,PAYLOAD,2024-07-03 21:47:27,15.08844057,0.0001158,53.2164,259.4939,94.7045,265.4079,0.00012089,1.637e-05,0.0,0 STARLINK-4209,1 52855U 22062AB  24185.90796247  .00001637  00000-0  12089-3 0  9991,2 52855  53.2164 259.4939 0001158  94.7045 265.4079 15.08844057113261,6917.868,95.437,540.534,538.932,0.0
52855.0,STARLINK-4209,PAYLOAD,2024-07-04 12:05:57,15.08833693,0.0001355,53.2165,256.8189,97.0451,263.0696,7.179e-05,8.55e-06,0.0,0 STARLINK-4209,1 52855U 22062AB  24186.50413344  .00000855  00000-0  71790-4 0  9998,2 52855  53.2165 256.8189 0001355  97.0451 263.0696 15.08833693113843,6917.9,95.438,540.702,538.827,0.0
52855.0,STARLINK-4209,PAYLOAD,2024-07-04 13:41:20,15.08833408,0.0001324,53.2165,256.5215,96.1987,263.9156,6.8185e-05,7.97e-06,0.0,0 STARLINK-4209,1 52855U 22062AB  24186.57037401  .00000797  00000-0  68185-4 0  9990,2 52855  53.2165 256.5215 0001324  96.1987 263.9156 15.08833408113361,6917.901,95.438,540.681,538.85,0.0
52855.0,STARLINK-4209,PAYLOAD,2024-07-04 21:38:15,15.08844532,0.0001344,53.2163,255.0342,85.412,274.7025,0.00012291,1.669e-05,0.0,0 STARLINK-4209,1 52855U 22062AB  24186.90156629  .00001669  00000-0  12291-3 0  9996,2 52855  53.2163 255.0342 0001344  85.4120 274.7025 15.08844532113417,6917.867,95.437,540.661,538.802,0.0
52855.0,STARLINK-4209,PAYLOAD,2024-07-05 03:59:47,15.08843432,0.0001401,53.2153,253.8454,93.7066,266.4086,0.00011633,1.564e-05,0.0,0 STARLINK-4209,1 52855U 22062AB  24187.16652682  .00001564  00000-0  11633-3 0  9998,2 52855  53.2153 253.8454 0001401  93.7066 266.4086 15.08843432113942,6917.87,95.437,540.704,538.766,0.0
52855.0,STARLINK-4209,PAYLOAD,2024-07-05 11:56:43,15.08840547,0.0001498,53.2176,252.3583,90.1591,269.9573,9.8188e-05,1.275e-05,0.0,0 STARLINK-4209,1 52855U 22062AB  24187.49773019  .00001275  00000-0  98188-4 0  9992,2 52855  53.2176 252.3583 0001498  90.1591 269.9573 15.08840547113509,6917.879,95.438,540.78,538.707,0.0
